2026-052G               
1 68204U 26052G   26087.53831297  .00008270  00000+0  50213-3 0  9996
2 68204  97.5378 163.6025 0009588 218.0672 141.9881 15.10719563  1876
KZ-11 R/B               
1 68205U 26052H   26087.49533868  .00029357  19403-5  43913-3 0  9996
2 68205  97.3417 162.8597 0546213 333.0742  24.3047 14.67210758  1816
2026-052J               
1 68206U 26052J   26087.49227215  .00071326  25964-5  10438-2 0  9990
2 68206  97.3419 162.8631 0543588 333.1300  24.2669 14.67973815  1810
STARLINK-36986          
1 68207U 26053A   26087.50001156  .00126439  00000+0  65371-3 0  9999
2 68207  97.2838 322.6661 0001426  87.4988  79.3060 15.80735581  3039
STARLINK-37009          
1 68208U 26053B   26087.50001156  .00054213  00000+0  28242-3 0  9996
2 68208  97.2835 322.6668 0001989  82.9050  88.1511 15.80783207  3035
STARLINK-36948          
1 68209U 26053C   26087.50001156 -.00024718  00000+0 -12857-3 0  9991
2 68209  97.2834 322.6688 0001922  93.1048  82.2112 15.80830792  2926
STARLINK-37119          
1 68210U 26053D   26087.50001156  .00095316  00000+0  49386-3 0  9990
2 68210  97.2833 322.6700 0001455  98.5640  81.0303 15.80774805  3034
STARLINK-37120          
1 68211U 26053E   26087.50001156  .00050699  00000+0  26425-3 0  9995
2 68211  97.2837 322.6709 0001540  90.8163  93.0456 15.80785709  3013
STARLINK-37117          
1 68212U 26053F   26087.50001156  .00030544  00000+0  15973-3 0  9999
2 68212  97.2838 322.6743 0001306  91.0878  97.0579 15.80804062  3035
STARLINK-37116          
1 68213U 26053G   26087.50001156  .00066424  00000+0  34551-3 0  9999
2 68213  97.2835 322.6760 0001543  95.6458  96.7774 15.80775835  3037
STARLINK-35854          
1 68214U 26053H   26087.50001156 -.00011988  00000+0 -61943-4 0  9993
2 68214  97.2835 322.6769 0001312  86.6824 110.0024 15.80811753  2798
STARLINK-36272          
1 68215U 26053J   26087.50001156  .00168012  00000+0  86382-3 0  9996
2 68215  97.2832 322.6795 0001568  70.6116 130.3453 15.80746326  2924
