CCSDS_OMM_VERS = 2.0
CREATION_DATE  = 
ORIGINATOR     = 

OBJECT_NAME    = 2026-052G
OBJECT_ID      = 2026-052G
CENTER_NAME    = EARTH
REF_FRAME      = TEME
TIME_SYSTEM    = UTC
MEAN_ELEMENT_THEORY = SGP/SGP4

EPOCH          = 2026-03-28T12:55:10.240608
MEAN_MOTION    = 15.10719563
ECCENTRICITY   = .0009588
INCLINATION    = 97.5378
RA_OF_ASC_NODE = 163.6025
ARG_OF_PERICENTER = 218.0672
MEAN_ANOMALY   = 141.9881

EPHEMERIS_TYPE = 0
CLASSIFICATION_TYPE = U
NORAD_CAT_ID   = 68204
ELEMENT_SET_NO = 999
REV_AT_EPOCH   = 187
BSTAR          = .50213E-3
MEAN_MOTION_DOT = .827E-4
MEAN_MOTION_DDOT = 0

CCSDS_OMM_VERS = 2.0
CREATION_DATE  = 
ORIGINATOR     = 

OBJECT_NAME    = KZ-11 R/B
OBJECT_ID      = 2026-052H
CENTER_NAME    = EARTH
REF_FRAME      = TEME
TIME_SYSTEM    = UTC
MEAN_ELEMENT_THEORY = SGP/SGP4

EPOCH          = 2026-03-28T11:53:17.261952
MEAN_MOTION    = 14.67210758
ECCENTRICITY   = .0546213
INCLINATION    = 97.3417
RA_OF_ASC_NODE = 162.8597
ARG_OF_PERICENTER = 333.0742
MEAN_ANOMALY   = 24.3047

EPHEMERIS_TYPE = 0
CLASSIFICATION_TYPE = U
NORAD_CAT_ID   = 68205
ELEMENT_SET_NO = 999
REV_AT_EPOCH   = 181
BSTAR          = .43913E-3
MEAN_MOTION_DOT = .29357E-3
MEAN_MOTION_DDOT = .19403E-5

CCSDS_OMM_VERS = 2.0
CREATION_DATE  = 
ORIGINATOR     = 

OBJECT_NAME    = 2026-052J
OBJECT_ID      = 2026-052J
CENTER_NAME    = EARTH
REF_FRAME      = TEME
TIME_SYSTEM    = UTC
MEAN_ELEMENT_THEORY = SGP/SGP4

EPOCH          = 2026-03-28T11:48:52.313760
MEAN_MOTION    = 14.67973815
ECCENTRICITY   = .0543588
INCLINATION    = 97.3419
RA_OF_ASC_NODE = 162.8631
ARG_OF_PERICENTER = 333.1300
MEAN_ANOMALY   = 24.2669

EPHEMERIS_TYPE = 0
CLASSIFICATION_TYPE = U
NORAD_CAT_ID   = 68206
ELEMENT_SET_NO = 999
REV_AT_EPOCH   = 181
BSTAR          = .10438E-2
MEAN_MOTION_DOT = .71326E-3
MEAN_MOTION_DDOT = .25964E-5

CCSDS_OMM_VERS = 2.0
CREATION_DATE  = 
ORIGINATOR     = 

OBJECT_NAME    = STARLINK-36986
OBJECT_ID      = 2026-053A
CENTER_NAME    = EARTH
REF_FRAME      = TEME
TIME_SYSTEM    = UTC
MEAN_ELEMENT_THEORY = SGP/SGP4

EPOCH          = 2026-03-28T12:00:00.998784
MEAN_MOTION    = 15.80735581
ECCENTRICITY   = .0001426
INCLINATION    = 97.2838
RA_OF_ASC_NODE = 322.6661
ARG_OF_PERICENTER = 87.4988
MEAN_ANOMALY   = 79.3060

EPHEMERIS_TYPE = 0
CLASSIFICATION_TYPE = U
NORAD_CAT_ID   = 68207
ELEMENT_SET_NO = 999
REV_AT_EPOCH   = 303
BSTAR          = .65371E-3
MEAN_MOTION_DOT = .126439E-2
MEAN_MOTION_DDOT = 0

CCSDS_OMM_VERS = 2.0
CREATION_DATE  = 
ORIGINATOR     = 

OBJECT_NAME    = STARLINK-37009
OBJECT_ID      = 2026-053B
CENTER_NAME    = EARTH
REF_FRAME      = TEME
TIME_SYSTEM    = UTC
MEAN_ELEMENT_THEORY = SGP/SGP4

EPOCH          = 2026-03-28T12:00:00.998784
MEAN_MOTION    = 15.80783207
ECCENTRICITY   = .0001989
INCLINATION    = 97.2835
RA_OF_ASC_NODE = 322.6668
ARG_OF_PERICENTER = 82.9050
MEAN_ANOMALY   = 88.1511

EPHEMERIS_TYPE = 0
CLASSIFICATION_TYPE = U
NORAD_CAT_ID   = 68208
ELEMENT_SET_NO = 999
REV_AT_EPOCH   = 303
BSTAR          = .28242E-3
MEAN_MOTION_DOT = .54213E-3
MEAN_MOTION_DDOT = 0

CCSDS_OMM_VERS = 2.0
CREATION_DATE  = 
ORIGINATOR     = 

OBJECT_NAME    = STARLINK-36948
OBJECT_ID      = 2026-053C
CENTER_NAME    = EARTH
REF_FRAME      = TEME
TIME_SYSTEM    = UTC
MEAN_ELEMENT_THEORY = SGP/SGP4

EPOCH          = 2026-03-28T12:00:00.998784
MEAN_MOTION    = 15.80830792
ECCENTRICITY   = .0001922
INCLINATION    = 97.2834
RA_OF_ASC_NODE = 322.6688
ARG_OF_PERICENTER = 93.1048
MEAN_ANOMALY   = 82.2112

EPHEMERIS_TYPE = 0
CLASSIFICATION_TYPE = U
NORAD_CAT_ID   = 68209
ELEMENT_SET_NO = 999
REV_AT_EPOCH   = 292
BSTAR          = -.12857E-3
MEAN_MOTION_DOT = -.24718E-3
MEAN_MOTION_DDOT = 0

CCSDS_OMM_VERS = 2.0
CREATION_DATE  = 
ORIGINATOR     = 

OBJECT_NAME    = STARLINK-37119
OBJECT_ID      = 2026-053D
CENTER_NAME    = EARTH
REF_FRAME      = TEME
TIME_SYSTEM    = UTC
MEAN_ELEMENT_THEORY = SGP/SGP4

EPOCH          = 2026-03-28T12:00:00.998784
MEAN_MOTION    = 15.80774805
ECCENTRICITY   = .0001455
INCLINATION    = 97.2833
RA_OF_ASC_NODE = 322.6700
ARG_OF_PERICENTER = 98.5640
MEAN_ANOMALY   = 81.0303

EPHEMERIS_TYPE = 0
CLASSIFICATION_TYPE = U
NORAD_CAT_ID   = 68210
ELEMENT_SET_NO = 999
REV_AT_EPOCH   = 303
BSTAR          = .49386E-3
MEAN_MOTION_DOT = .95316E-3
MEAN_MOTION_DDOT = 0

CCSDS_OMM_VERS = 2.0
CREATION_DATE  = 
ORIGINATOR     = 

OBJECT_NAME    = STARLINK-37120
OBJECT_ID      = 2026-053E
CENTER_NAME    = EARTH
REF_FRAME      = TEME
TIME_SYSTEM    = UTC
MEAN_ELEMENT_THEORY = SGP/SGP4

EPOCH          = 2026-03-28T12:00:00.998784
MEAN_MOTION    = 15.80785709
ECCENTRICITY   = .000154
INCLINATION    = 97.2837
RA_OF_ASC_NODE = 322.6709
ARG_OF_PERICENTER = 90.8163
MEAN_ANOMALY   = 93.0456

EPHEMERIS_TYPE = 0
CLASSIFICATION_TYPE = U
NORAD_CAT_ID   = 68211
ELEMENT_SET_NO = 999
REV_AT_EPOCH   = 301
BSTAR          = .26425E-3
MEAN_MOTION_DOT = .50699E-3
MEAN_MOTION_DDOT = 0

CCSDS_OMM_VERS = 2.0
CREATION_DATE  = 
ORIGINATOR     = 

OBJECT_NAME    = STARLINK-37117
OBJECT_ID      = 2026-053F
CENTER_NAME    = EARTH
REF_FRAME      = TEME
TIME_SYSTEM    = UTC
MEAN_ELEMENT_THEORY = SGP/SGP4

EPOCH          = 2026-03-28T12:00:00.998784
MEAN_MOTION    = 15.80804062
ECCENTRICITY   = .0001306
INCLINATION    = 97.2838
RA_OF_ASC_NODE = 322.6743
ARG_OF_PERICENTER = 91.0878
MEAN_ANOMALY   = 97.0579

EPHEMERIS_TYPE = 0
CLASSIFICATION_TYPE = U
NORAD_CAT_ID   = 68212
ELEMENT_SET_NO = 999
REV_AT_EPOCH   = 303
BSTAR          = .15973E-3
MEAN_MOTION_DOT = .30544E-3
MEAN_MOTION_DDOT = 0

CCSDS_OMM_VERS = 2.0
CREATION_DATE  = 
ORIGINATOR     = 

OBJECT_NAME    = STARLINK-37116
OBJECT_ID      = 2026-053G
CENTER_NAME    = EARTH
REF_FRAME      = TEME
TIME_SYSTEM    = UTC
MEAN_ELEMENT_THEORY = SGP/SGP4

EPOCH          = 2026-03-28T12:00:00.998784
MEAN_MOTION    = 15.80775835
ECCENTRICITY   = .0001543
INCLINATION    = 97.2835
RA_OF_ASC_NODE = 322.6760
ARG_OF_PERICENTER = 95.6458
MEAN_ANOMALY   = 96.7774

EPHEMERIS_TYPE = 0
CLASSIFICATION_TYPE = U
NORAD_CAT_ID   = 68213
ELEMENT_SET_NO = 999
REV_AT_EPOCH   = 303
BSTAR          = .34551E-3
MEAN_MOTION_DOT = .66424E-3
MEAN_MOTION_DDOT = 0

CCSDS_OMM_VERS = 2.0
CREATION_DATE  = 
ORIGINATOR     = 

OBJECT_NAME    = STARLINK-35854
OBJECT_ID      = 2026-053H
CENTER_NAME    = EARTH
REF_FRAME      = TEME
TIME_SYSTEM    = UTC
MEAN_ELEMENT_THEORY = SGP/SGP4

EPOCH          = 2026-03-28T12:00:00.998784
MEAN_MOTION    = 15.80811753
ECCENTRICITY   = .0001312
INCLINATION    = 97.2835
RA_OF_ASC_NODE = 322.6769
ARG_OF_PERICENTER = 86.6824
MEAN_ANOMALY   = 110.0024

EPHEMERIS_TYPE = 0
CLASSIFICATION_TYPE = U
NORAD_CAT_ID   = 68214
ELEMENT_SET_NO = 999
REV_AT_EPOCH   = 279
BSTAR          = -.61943E-4
MEAN_MOTION_DOT = -.11988E-3
MEAN_MOTION_DDOT = 0

CCSDS_OMM_VERS = 2.0
CREATION_DATE  = 
ORIGINATOR     = 

OBJECT_NAME    = STARLINK-36272
OBJECT_ID      = 2026-053J
CENTER_NAME    = EARTH
REF_FRAME      = TEME
TIME_SYSTEM    = UTC
MEAN_ELEMENT_THEORY = SGP/SGP4

EPOCH          = 2026-03-28T12:00:00.998784
MEAN_MOTION    = 15.80746326
ECCENTRICITY   = .0001568
INCLINATION    = 97.2832
RA_OF_ASC_NODE = 322.6795
ARG_OF_PERICENTER = 70.6116
MEAN_ANOMALY   = 130.3453

EPHEMERIS_TYPE = 0
CLASSIFICATION_TYPE = U
NORAD_CAT_ID   = 68215
ELEMENT_SET_NO = 999
REV_AT_EPOCH   = 292
BSTAR          = .86382E-3
MEAN_MOTION_DOT = .168012E-2
MEAN_MOTION_DDOT = 0

